{"type": "FeatureCollection", "features": [ {"type": "Feature", "properties": {"norad_id": 66416, "name": "HULIANWANG DIGUI 13E", "group": "last-30-days", "lat": 21.517035071063663, "lon": -55.80053748655245, "alt_km": 811.151362143456, "timestamp": "2025-12-07T07:31:35.084862+00:00", "meta": {"OBJECT_NAME": "HULIANWANG DIGUI 13E", "OBJECT_ID": "2025-258E", "EPOCH": "2025-12-06T06:05:20.650272", "MEAN_MOTION": 14.21759879, "ECCENTRICITY": 0.00106116, "INCLINATION": 50.0051, "RA_OF_ASC_NODE": 289.3198, "ARG_OF_PERICENTER": 342.4117, "MEAN_ANOMALY": 17.6426, "EPHEMERIS_TYPE": 0, "CLASSIFICATION_TYPE": "U", "NORAD_CAT_ID": 66416, "ELEMENT_SET_NO": 999, "REV_AT_EPOCH": 373, "BSTAR": 0.00040565133, "MEAN_MOTION_DOT": 7.4e-06, "MEAN_MOTION_DDOT": 0}, "tle": {"line1": "1 66416U 25258E   25340.25371123  .00000740  00000+0  40565-3 0  9996", "line2": "2 66416  50.0051 289.3198 0010611 342.4117  17.6426 14.21759879  3739"}}, "geometry": {"type": "Point", "coordinates": [-55.80053748655245, 21.517035071063663]}}, {"type": "Feature", "properties": {"norad_id": 66417, "name": "HULIANWANG DIGUI 13F", "group": "last-30-days", "lat": 27.49858500451548, "lon": -49.25088440835176, "alt_km": 810.836121541899, "timestamp": "2025-12-07T07:31:35.084873+00:00", "meta": {"OBJECT_NAME": "HULIANWANG DIGUI 13F", "OBJECT_ID": "2025-258F", "EPOCH": "2025-12-06T14:29:09.906432", "MEAN_MOTION": 14.21933133, "ECCENTRICITY": 0.00102248, "INCLINATION": 50.0001, "RA_OF_ASC_NODE": 287.8136, "ARG_OF_PERICENTER": 341.4358, "MEAN_ANOMALY": 18.618, "EPHEMERIS_TYPE": 0, "CLASSIFICATION_TYPE": "U", "NORAD_CAT_ID": 66417, "ELEMENT_SET_NO": 999, "REV_AT_EPOCH": 378, "BSTAR": 0.00035322897, "MEAN_MOTION_DOT": 6.26e-06, "MEAN_MOTION_DDOT": 0}, "tle": {"line1": "1 66417U 25258F   25340.60358688  .00000626  00000+0  35323-3 0  9996", "line2": "2 66417  50.0001 287.8136 0010224 341.4358  18.6180 14.21933133  3786"}}, "geometry": {"type": "Point", "coordinates": [-49.25088440835176, 27.49858500451548]}}, {"type": "Feature", "properties": {"norad_id": 66418, "name": "HULIANWANG DIGUI 13G", "group": "last-30-days", "lat": 42.3842292408425, "lon": -25.181296851099557, "alt_km": 812.162987421867, "timestamp": "2025-12-07T07:31:35.084883+00:00", "meta": {"OBJECT_NAME": "HULIANWANG DIGUI 13G", "OBJECT_ID": "2025-258G", "EPOCH": "2025-12-06T22:48:15.691968", "MEAN_MOTION": 14.21900282, "ECCENTRICITY": 0.00109178, "INCLINATION": 49.9964, "RA_OF_ASC_NODE": 286.3158, "ARG_OF_PERICENTER": 336.7333, "MEAN_ANOMALY": 23.3084, "EPHEMERIS_TYPE": 0, "CLASSIFICATION_TYPE": "U", "NORAD_CAT_ID": 66418, "ELEMENT_SET_NO": 999, "REV_AT_EPOCH": 383, "BSTAR": 0.00030227469, "MEAN_MOTION_DOT": 5.13e-06, "MEAN_MOTION_DDOT": 0}, "tle": {"line1": "1 66418U 25258G   25340.95018162  .00000513  00000+0  30227-3 0  9998", "line2": "2 66418  49.9964 286.3158 0010917 336.7333  23.3084 14.21900282  3830"}}, "geometry": {"type": "Point", "coordinates": [-25.181296851099557, 42.3842292408425]}}, {"type": "Feature", "properties": {"norad_id": 66419, "name": "HULIANWANG DIGUI 13H", "group": "last-30-days", "lat": 46.27950693369894, "lon": -13.836786242631375, "alt_km": 812.0224220031387, "timestamp": "2025-12-07T07:31:35.084893+00:00", "meta": {"OBJECT_NAME": "HULIANWANG DIGUI 13H", "OBJECT_ID": "2025-258H", "EPOCH": "2025-12-06T22:45:46.309824", "MEAN_MOTION": 14.22013491, "ECCENTRICITY": 0.00082545, "INCLINATION": 50.0017, "RA_OF_ASC_NODE": 286.3008, "ARG_OF_PERICENTER": 339.9329, "MEAN_ANOMALY": 20.1258, "EPHEMERIS_TYPE": 0, "CLASSIFICATION_TYPE": "U", "NORAD_CAT_ID": 66419, "ELEMENT_SET_NO": 999, "REV_AT_EPOCH": 383, "BSTAR": 0.00028418037, "MEAN_MOTION_DOT": 4.74e-06, "MEAN_MOTION_DDOT": 0}, "tle": {"line1": "1 66419U 25258H   25340.94845266  .00000474  00000+0  28418-3 0  9996", "line2": "2 66419  50.0017 286.3008 0008254 339.9329  20.1258 14.22013491  3834"}}, "geometry": {"type": "Point", "coordinates": [-13.836786242631375, 46.27950693369894]}}, {"type": "Feature", "properties": {"norad_id": 66420, "name": "HULIANWANG DIGUI 13J", "group": "last-30-days", "lat": 48.51265738836177, "lon": -3.553414981881652, "alt_km": 811.1535038103993, "timestamp": "2025-12-07T07:31:35.084904+00:00", "meta": {"OBJECT_NAME": "HULIANWANG DIGUI 13J", "OBJECT_ID": "2025-258J", "EPOCH": "2025-12-06T22:43:47.062272", "MEAN_MOTION": 14.22178849, "ECCENTRICITY": 0.00077946, "INCLINATION": 50.0037, "RA_OF_ASC_NODE": 286.3028, "ARG_OF_PERICENTER": 347.21, "MEAN_ANOMALY": 12.8614, "EPHEMERIS_TYPE": 0, "CLASSIFICATION_TYPE": "U", "NORAD_CAT_ID": 66420, "ELEMENT_SET_NO": 999, "REV_AT_EPOCH": 382, "BSTAR": 0.00028316979, "MEAN_MOTION_DOT": 4.73e-06, "MEAN_MOTION_DDOT": 0}, "tle": {"line1": "1 66420U 25258J   25340.94707248  .00000473  00000+0  28317-3 0  9992", "line2": "2 66420  50.0037 286.3028 0007794 347.2100  12.8614 14.22178849  3829"}}, "geometry": {"type": "Point", "coordinates": [-3.553414981881652, 48.51265738836177]}}, {"type": "Feature", "properties": {"norad_id": 66421, "name": "CZ-12 R/B", "group": "last-30-days", "lat": -8.628231039647016, "lon": -85.82802129933052, "alt_km": 774.4267080408754, "timestamp": "2025-12-07T07:31:35.084914+00:00", "meta": {"OBJECT_NAME": "CZ-12 R/B", "OBJECT_ID": "2025-258K", "EPOCH": "2025-12-06T21:36:07.292160", "MEAN_MOTION": 14.42319892, "ECCENTRICITY": 0.00645248, "INCLINATION": 49.9961, "RA_OF_ASC_NODE": 283.2878, "ARG_OF_PERICENTER": 228.4128, "MEAN_ANOMALY": 131.1251, "EPHEMERIS_TYPE": 0, "CLASSIFICATION_TYPE": "U", "NORAD_CAT_ID": 66421, "ELEMENT_SET_NO": 999, "REV_AT_EPOCH": 387, "BSTAR": 0.00011616929, "MEAN_MOTION_DOT": 2.25e-06, "MEAN_MOTION_DDOT": 0}, "tle": {"line1": "1 66421U 25258K   25340.90008440  .00000225  00000+0  11617-3 0  9997", "line2": "2 66421  49.9961 283.2878 0064524 228.4128 131.1251 14.42319892  3870"}}, "geometry": {"type": "Point", "coordinates": [-85.82802129933052, -8.628231039647016]}}, {"type": "Feature", "properties": {"norad_id": 66422, "name": "STARLINK-35617", "group": "last-30-days", "lat": 32.40235961847038, "lon": 122.30162430593418, "alt_km": 439.5764663046366, "timestamp": "2025-12-07T07:31:35.084925+00:00", "meta": {"OBJECT_NAME": "STARLINK-35617", "OBJECT_ID": "2025-259A", "EPOCH": "2025-12-07T00:00:02.000160", "MEAN_MOTION": 15.40661177, "ECCENTRICITY": 0.00012093, "INCLINATION": 43.0009, "RA_OF_ASC_NODE": 81.1817, "ARG_OF_PERICENTER": 271.0136, "MEAN_ANOMALY": 199.5474, "EPHEMERIS_TYPE": 0, "CLASSIFICATION_TYPE": "U", "NORAD_CAT_ID": 66422, "ELEMENT_SET_NO": 999, "REV_AT_EPOCH": 535, "BSTAR": 0.00052450909, "MEAN_MOTION_DOT": 0.0002164, "MEAN_MOTION_DDOT": 0}, "tle": {"line1": "1 66422U 25259A   25341.00002315  .00021640  00000+0  52451-3 0  9991", "line2": "2 66422  43.0009  81.1817 0001209 271.0136 199.5474 15.40661177  5356"}}, "geometry": {"type": "Point", "coordinates": [122.30162430593418, 32.40235961847038]}}, {"type": "Feature", "properties": {"norad_id": 66423, "name": "STARLINK-35618", "group": "last-30-days", "lat": 37.888354015766694, "lon": 135.9628421685602, "alt_km": 439.02745453576244, "timestamp": "2025-12-07T07:31:35.084937+00:00", "meta": {"OBJECT_NAME": "STARLINK-35618", "OBJECT_ID": "2025-259B", "EPOCH": "2025-12-07T00:00:02.000160", "MEAN_MOTION": 15.40660279, "ECCENTRICITY": 0.00015349, "INCLINATION": 43.001, "RA_OF_ASC_NODE": 81.1513, "ARG_OF_PERICENTER": 268.359, "MEAN_ANOMALY": 214.64, "EPHEMERIS_TYPE": 0, "CLASSIFICATION_TYPE": "U", "NORAD_CAT_ID": 66423, "ELEMENT_SET_NO": 999, "REV_AT_EPOCH": 535, "BSTAR": 0.00046654015, "MEAN_MOTION_DOT": 0.00019208, "MEAN_MOTION_DDOT": 0}, "tle": {"line1": "1 66423U 25259B   25341.00002315  .00019208  00000+0  46654-3 0  9997", "line2": "2 66423  43.0010  81.1513 0001534 268.3590 214.6400 15.40660279  5356"}}, "geometry": {"type": "Point", "coordinates": [135.9628421685602, 37.888354015766694]}}, {"type": "Feature", "properties": {"norad_id": 66424, "name": "STARLINK-35588", "group": "last-30-days", "lat": 41.56916240260504, "lon": 151.43542740202892, "alt_km": 438.55624500751946, "timestamp": "2025-12-07T07:31:35.084947+00:00", "meta": {"OBJECT_NAME": "STARLINK-35588", "OBJECT_ID": "2025-259C", "EPOCH": "2025-12-07T00:00:02.000160", "MEAN_MOTION": 15.40654824, "ECCENTRICITY": 0.0001542, "INCLINATION": 43.0009, "RA_OF_ASC_NODE": 81.1218, "ARG_OF_PERICENTER": 266.1427, "MEAN_ANOMALY": 229.3065, "EPHEMERIS_TYPE": 0, "CLASSIFICATION_TYPE": "U", "NORAD_CAT_ID": 66424, "ELEMENT_SET_NO": 999, "REV_AT_EPOCH": 535, "BSTAR": 0.00053663955, "MEAN_MOTION_DOT": 0.00022145, "MEAN_MOTION_DDOT": 0}, "tle": {"line1": "1 66424U 25259C   25341.00002315  .00022145  00000+0  53664-3 0  9991", "line2": "2 66424  43.0009  81.1218 0001542 266.1427 229.3065 15.40654824  5350"}}, "geometry": {"type": "Point", "coordinates": [151.43542740202892, 41.56916240260504]}}, {"type": "Feature", "properties": {"norad_id": 66425, "name": "STARLINK-35555", "group": "last-30-days", "lat": 42.975364390108304, "lon": 168.17167531322465, "alt_km": 438.5549431784739, "timestamp": "2025-12-07T07:31:35.084957+00:00", "meta": {"OBJECT_NAME": "STARLINK-35555", "OBJECT_ID": "2025-259D", "EPOCH": "2025-12-07T00:00:02.000160", "MEAN_MOTION": 15.4074847, "ECCENTRICITY": 0.00018259, "INCLINATION": 43.001, "RA_OF_ASC_NODE": 81.0894, "ARG_OF_PERICENTER": 272.4877, "MEAN_ANOMALY": 235.3568, "EPHEMERIS_TYPE": 0, "CLASSIFICATION_TYPE": "U", "NORAD_CAT_ID": 66425, "ELEMENT_SET_NO": 999, "REV_AT_EPOCH": 535, "BSTAR": -0.0028639977, "MEAN_MOTION_DOT": -0.00118299, "MEAN_MOTION_DDOT": 0}, "tle": {"line1": "1 66425U 25259D   25341.00002315 -.00118299  00000+0 -28640-2 0  9995", "line2": "2 66425  43.0010  81.0894 0001825 272.4877 235.3568 15.40748470  5351"}}, "geometry": {"type": "Point", "coordinates": [168.17167531322465, 42.975364390108304]}}]}